DELTA 2 R/B(1)          
1 20453U 90008B   26199.57360949  .00081373  00000+0  48844-3 0  9993
2 20453  35.5998  24.8567 0057119  48.2970 312.2639 15.74164493946649
COSMOS 2058             
1 20465U 90010A   26200.23028971  .00001924  00000+0  10982-3 0  9997
2 20465  82.4674 277.7520 0008245 233.0749 126.9727 15.12170696962118
SL-14 R/B               
1 20466U 90010B   26200.27057455  .00000192  00000+0  20285-4 0  9995
2 20466  82.5038 143.8159 0018619 222.8886 137.0878 14.83664361947992
SL-14 R/B               
1 20511U 90018B   26200.21255085  .00000194  00000+0  21338-4 0  9999
2 20511  82.5215 100.1753 0016738  24.2738 335.9261 14.82235502942064
HST                     
1 20580U 90037B   26200.21572411  .00003033  00000+0  90734-4 0  9992
2 20580  28.4722 221.6112 0002141 143.1393 216.9350 15.31084186793483
SL-16 R/B               
1 20625U 90046B   26200.25407082  .00000294  00000+0  17604-3 0  9997
2 20625  70.9993  21.5983 0012296 107.1393 253.1077 14.15027329867006
COSMOS 2084             
1 20663U 90055A   26200.19478649  .00000700  00000+0  61322-4 0  9998
2 20663  62.7877 246.8338 0008565 321.9448  38.1047 15.06231320956124
SL-6 R/B(2)             
1 20666U 90055D   26200.29458216  .00001017  00000+0  86277-4 0  9998
2 20666  62.7808 166.1089 0045789   9.5376 350.6582 15.04097948957981
SL-8 R/B                
1 20775U 90078B   26200.22848282  .00007344  00000+0  20795-3 0  9994
2 20775  82.9033 132.6594 0343088 289.7978  66.6558 14.93640467828901
SL-8 R/B                
1 21088U 91006B   26200.17972042  .00000072  00000+0  56675-4 0  9998
2 21088  82.9404  72.2308 0023211  29.7565  87.5806 13.77509774782172
OKEAN-3                 
1 21397U 91039A   26200.30996488  .00001666  00000+0  11389-3 0  9994
2 21397  82.5148 209.2273 0012781 238.7976 121.1999 15.05448537884833
COSMOS 2151             
1 21422U 91042A   26200.26951678  .00000982  00000+0  75680-4 0  9999
2 21422  82.4983 316.7192 0011579 341.2838  18.7959 15.00519722882928
SL-14 R/B               
1 21423U 91042B   26200.22592393  .00000170  00000+0  18445-4 0  9996
2 21423  82.4930  96.8516 0017337 163.8145 196.3627 14.81919307872558
ERS-1                   
1 21574U 91050A   26200.06864416  .00000187  00000+0  74471-4 0  9991
2 21574  98.7796 221.5452 0032155 170.3652 189.8159 14.39535247834636
ARIANE 40 R/B           
1 21610U 91050F   26200.15447237  .00000096  00000+0  41215-4 0  9999
2 21610  98.1860 247.3234 0003977  52.5890 307.5662 14.42973078837950
INTERCOSMOS 25          
1 21819U 91086A   26200.30296584  .00000360  00000+0  67647-4 0  9994
2 21819  82.6001 230.3753 1484786 193.0617 162.7650 12.12242150512632
SL-8 R/B                
1 21876U 92008B   26200.18367115  .00000105  00000+0  91372-4 0  9996
2 21876  82.9276 169.9984 0035858 125.7820 245.2491 13.75984427727508
SL-8 R/B                
1 21938U 92020B   26200.14456627 -.00000007  00000+0 -23148-4 0  9991
2 21938  82.9277  56.1156 0027837 292.0301 191.0264 13.75549936719202
USA 81                  
1 21949U 92023A   26200.12920921  .00000081  00000+0  22648-4 0  9991
2 21949  85.0048  55.5666 0001808  65.1235 295.0145 14.32405536113604
COSMOS 2219             
1 22219U 92076A   26200.16381952 -.00000264  00000+0 -11394-3 0  9999
2 22219  71.0609 103.2279 0018495 351.5584   8.5224 14.14107201736966
SL-16 R/B               
1 22220U 92076B   26200.21418192 -.00000102  00000+0 -26994-4 0  9998
2 22220  71.0000 271.3155 0015033 257.0982 118.9753 14.16878023740462
COSMOS 2221             
1 22236U 92080A   26200.29921004  .00000821  00000+0  69606-4 0  9992
2 22236  82.5049 152.9987 0015892 107.6745 252.6214 14.96610294800474
SL-16 R/B               
1 22285U 92093B   26200.11433200 -.00000259  00000+0 -10804-3 0  9999
2 22285  71.0214  88.3682 0002174 123.1560 236.9772 14.15464245731758
COSMOS 2228             
1 22286U 92094A   26200.22497292  .00000873  00000+0  72125-4 0  9999
2 22286  82.5186 111.3554 0016611 214.6559 145.3583 14.97682216795746
SL-16 R/B               
1 22566U 93016B   26200.23914639  .00000295  00000+0  17582-3 0  9998
2 22566  71.0087 298.8871 0008655 130.7872 229.4003 14.15315037720785
COSMOS 2242             
1 22626U 93024A   26200.26598762  .00000833  00000+0  70019-4 0  9995
2 22626  82.5201 140.8524 0014913 217.7984 142.2192 14.96991406800073
SL-16 R/B               
1 22803U 93059B   26200.10986485  .00000126  00000+0  86296-4 0  9995
2 22803  70.9901  93.9855 0016878   2.7334 357.3879 14.17249697698152
ARIANE 40 R/B           
1 22830U 93061H   26200.18657348  .00000056  00000+0  36258-4 0  9994
2 22830  98.4802 266.3764 0009562 252.4937 107.5202 14.32919398712934
COSMOS 2278             
1 23087U 94023A   26200.21362040  .00000141  00000+0  98147-4 0  9994
2 23087  71.0517 259.9183 0009418 199.4985 160.5778 14.14394204663402
SL-16 R/B               
1 23088U 94023B   26200.20107137  .00000287  00000+0  17259-3 0  9993
2 23088  70.9991 154.6991 0001310 112.5541 247.5721 14.15026431664693
SL-16 R/B               
1 23343U 94074B   26200.33131953  .00000167  00000+0  28891-4 0  9992
2 23343  97.6985 225.7115 0007457 142.2296 234.2358 14.79526234706714
SL-16 R/B               
1 23405U 94077B   26200.06071378  .00000136  00000+0  94117-4 0  9998
2 23405  70.9821  76.1069 0004134 300.4816  59.5898 14.15574813634822
ARIANE 40+ R/B          
1 23561U 95021B   26200.23074927  .00000105  00000+0  47392-4 0  9992
2 23561  98.4398 269.8405 0007960 106.3747 322.4206 14.39848861638170
SL-16 R/B               
1 23705U 95058B   26200.21535179  .00000281  00000+0  16804-3 0  9999
2 23705  71.0207 264.1149 0014659 277.6280  82.3178 14.15511054586465
SL-16 R/B               
1 24298U 96051B   26200.18333772  .00000141  00000+0  10299-3 0  9999
2 24298  70.7642 256.9373 0018061 292.9372  66.9841 14.12458113540214
ORBVIEW 2 (SEASTAR)     
1 24883U 97037A   26200.08143293  .00000088  00000+0  46723-4 0  9992
2 24883  98.8719   7.9892 0002953  53.0011 307.1443 14.35567824527329
SL-16 R/B               
1 25400U 98043G   26200.28676832  .00000003  00000+0  20155-4 0  9996
2 25400  98.8380 154.7253 0009829 359.8439   0.2736 14.26073074457744
SL-16 R/B               
1 25407U 98045B   26200.23237865  .00000004  00000+0  26333-4 0  9994
2 25407  71.0103 264.9384 0007970 200.5718 159.5086 14.16204960445723
ISS (ZARYA)             
1 25544U 98067A   26200.18563955  .00004087  00000+0  82168-4 0  9999
2 25544  51.6318 141.7399 0006797 313.2287  46.8133 15.49047695576716
CZ-4B R/B               
1 25732U 99025C   26200.08938502  .00000006  00000+0  23700-4 0  9990
2 25732  98.6470 241.1225 0036440 328.3560  58.7960 14.18288104406794
OKEAN-O                 
1 25860U 99039A   26200.18081647  .00000237  00000+0  37708-4 0  9996
2 25860  97.9297 258.6085 0000883  96.8446 263.2866 14.80499866453848
SL-16 R/B               
1 25861U 99039B   26200.17292535  .00000194  00000+0  31349-4 0  9993
2 25861  97.9819 258.9418 0014650 185.2644 174.8417 14.81872932456338
DELTA 2 R/B             
1 25876U 99041E   26200.23923138  .00000823  00000+0  17141-3 0  9991
2 25876  51.7612 135.7368 0501464  16.6961 344.9829 14.12094681381618
HELIOS 1B               
1 25977U 99064A   26200.18636009  .00000576  00000+0  69035-4 0  9995
2 25977  98.1579 106.2486 0001735  50.3930 309.7439 14.88080508704811
TERRA                   
1 25994U 99068A   26200.27316722  .00000163  00000+0  42191-4 0  9991
2 25994  97.9438 248.5443 0003555 114.9038 309.9464 14.61125488414290
SL-16 R/B               
1 26070U 00006B   26200.21119843  .00000114  00000+0  82234-4 0  9998
2 26070  71.0004 181.2886 0017352 334.4290  25.5973 14.15838373367174
TITAN 4B R/B            
1 26474U 00047B   26200.24639176  .00001256  00000+0  83085-4 0  9993
2 26474  67.9873  30.3212 0045736 254.7143 104.8949 15.10344423412770
ENVISAT                 
1 27386U 02009A   26200.32182059  .00000025  00000+0  22123-4 0  9997
2 27386  98.3848 150.9266 0001317  82.7729  79.2939 14.39071253278106
IDEFIX & ARIANE 42P R/B 
1 27422U 02021B   26200.29133011  .00000082  00000+0  47837-4 0  9994
2 27422  98.5941 137.4275 0012155 154.5996 205.5787 14.31094764262842
AQUA                    
1 27424U 02022A   26200.29386193  .00000333  00000+0  76148-4 0  9994
2 27424  98.4299 170.2228 0001269 101.7289   3.0103 14.62131777287968
CZ-4B R/B               
1 27432U 02024C   26200.13257590 -.00000006  00000+0  19594-4 0  9996
2 27432  98.8682 252.7423 0050280  10.8470   8.9878 14.14568524247824
MIDORI II (ADEOS-II)    
1 27597U 02056A   26199.84860506  .00000093  00000+0  54464-4 0  9995
2 27597  98.7896 159.3810 0001332  36.4516 323.6755 14.29364028229036
H-2A R/B                
1 27601U 02056E   26200.17249638  .00000117  00000+0  55156-4 0  9993
2 27601  98.3330 155.6843 0071062 129.2164 242.5601 14.33835105232951
CZ-4B R/B               
1 28059U 03049C   26200.00000538  .00000114  00000+0  37853-4 0  9991
2 28059  98.6912 200.1153 0047895 189.5638 170.4651 14.55117506205697
CZ-2C R/B               
1 28222U 04012C   26200.22066781  .00101580  00000+0  40845-3 0  9993
2 28222  97.7044 279.7837 0010948 180.5748 179.5511 15.86074606224962
SL-16 R/B               
1 28353U 04021B   26200.26448458 -.00000126  00000+0 -40837-4 0  9995
2 28353  71.0029 316.3689 0006176 221.5871 138.4783 14.14616299141445
CZ-4B R/B               
1 28415U 04035C   26200.09647758  .00003712  00000+0  12486-3 0  9994
2 28415  97.3352 232.8171 0029551 218.1874 141.7274 15.31022020200002
CZ-2C R/B               
1 28480U 04046B   26200.23496460  .00000062  00000+0  37757-4 0  9990
2 28480  98.1911 107.0077 0140335 125.5099 235.9268 14.27034009127265
ARIANE 5 R/B            
1 28499U 04049H   26200.05849314  .00000257  00000+0  35270-4 0  9997
2 28499  98.2746  13.5483 0082515 285.5471  73.6645 14.85481247165295
